{
    "links": {
        "self": "http://www.neowsapp.com/rest/v1/neo/3655976?api_key=iIulBulltgU6a56xZRHN4H3l9WmuAYTsLGpBGhQ2"
    },
    "id": "3655976",
    "neo_reference_id": "3655976",
    "name": "(2014 AM51)",
    "designation": "2014 AM51",
    "nasa_jpl_url": "http://ssd.jpl.nasa.gov/sbdb.cgi?sstr=3655976",
    "absolute_magnitude_h": 24.9,
    "estimated_diameter": {
        "kilometers": {
            "estimated_diameter_min": 0.0278326768,
            "estimated_diameter_max": 0.0622357573
        },
        "meters": {
            "estimated_diameter_min": 27.8326768072,
            "estimated_diameter_max": 62.2357573367
        },
        "miles": {
            "estimated_diameter_min": 0.0172944182,
            "estimated_diameter_max": 0.0386714948
        },
        "feet": {
            "estimated_diameter_min": 91.3145593761,
            "estimated_diameter_max": 204.1855621004
        }
    },
    "is_potentially_hazardous_asteroid": false,
    "close_approach_data": [
        {
            "close_approach_date": "2011-11-20",
            "close_approach_date_full": "2011-Nov-20 19:01",
            "epoch_date_close_approach": 1321815660000,
            "relative_velocity": {
                "kilometers_per_second": "14.5610904841",
                "kilometers_per_hour": "52419.9257425998",
                "miles_per_hour": "32571.7033037837"
            },
            "miss_distance": {
                "astronomical": "0.3157283235",
                "lunar": "122.8183178415",
                "kilometers": "47232284.694270945",
                "miles": "29348780.787971241"
            },
            "orbiting_body": "Earth"
        },
        {
            "close_approach_date": "2014-01-07",
            "close_approach_date_full": "2014-Jan-07 21:47",
            "epoch_date_close_approach": 1389131220000,
            "relative_velocity": {
                "kilometers_per_second": "6.3527042052",
                "kilometers_per_hour": "22869.7351388309",
                "miles_per_hour": "14210.3640366808"
            },
            "miss_distance": {
                "astronomical": "0.0203344479",
                "lunar": "7.9101002331",
                "kilometers": "3041990.093465973",
                "miles": "1890204.9941095074"
            },
            "orbiting_body": "Earth"
        },
        {
            "close_approach_date": "2016-02-17",
            "close_approach_date_full": "2016-Feb-17 23:54",
            "epoch_date_close_approach": 1455753240000,
            "relative_velocity": {
                "kilometers_per_second": "12.8658973011",
                "kilometers_per_hour": "46317.230283879",
                "miles_per_hour": "28779.7256727803"
            },
            "miss_distance": {
                "astronomical": "0.2456398002",
                "lunar": "95.5538822778",
                "kilometers": "36747190.897145574",
                "miles": "22833645.6132699612"
            },
            "orbiting_body": "Earth"
        }
    ],
    "orbital_data": {
        "orbit_id": "5",
        "orbit_determination_date": "2017-04-06 08:42:53",
        "first_observation_date": "2014-01-11",
        "last_observation_date": "2014-01-14",
        "data_arc_in_days": 3,
        "observations_used": 38,
        "orbit_uncertainty": "7",
        "minimum_orbit_intersection": ".011492",
        "jupiter_tisserand_invariant": "4.248",
        "epoch_osculation": "2459000.5",
        "eccentricity": ".3845034434596856",
        "semi_major_axis": "1.611885229876869",
        "inclination": "7.151530851051387",
        "ascending_node_longitude": "114.1289703096394",
        "orbital_period": "747.4800405814128",
        "perihelion_distance": ".9921098085274056",
        "perihelion_argument": "351.0145011161091",
        "aphelion_distance": "2.231660651226332",
        "perihelion_time": "2458905.300737279172",
        "mean_anomaly": "45.84969861247483",
        "mean_motion": ".4816182111297326",
        "equinox": "J2000",
        "orbit_class": {
            "orbit_class_type": "APO",
            "orbit_class_description": "Near-Earth asteroid orbits which cross the Earth’s orbit similar to that of 1862 Apollo",
            "orbit_class_range": "a (semi-major axis) > 1.0 AU; q (perihelion) < 1.017 AU"
        }
    },
    "is_sentry_object": false
}